CCSDS_OMM_VERS = 2.0
CREATION_DATE  = 
ORIGINATOR     = 

OBJECT_NAME    = STARLINK-35721
OBJECT_ID      = 2025-294S
CENTER_NAME    = EARTH
REF_FRAME      = TEME
TIME_SYSTEM    = UTC
MEAN_ELEMENT_THEORY = SGP/SGP4

EPOCH          = 2026-01-03T12:04:29.834976
MEAN_MOTION    = 15.50573724
ECCENTRICITY   = .00010639
INCLINATION    = 42.9997
RA_OF_ASC_NODE = 51.0751
ARG_OF_PERICENTER = 270.7577
MEAN_ANOMALY   = 89.3161

EPHEMERIS_TYPE = 0
CLASSIFICATION_TYPE = U
NORAD_CAT_ID   = 67046
ELEMENT_SET_NO = 999
REV_AT_EPOCH   = 477
BSTAR          = .27744924E-2
MEAN_MOTION_DOT = .165889E-2
MEAN_MOTION_DDOT = 0

CCSDS_OMM_VERS = 2.0
CREATION_DATE  = 
ORIGINATOR     = 

OBJECT_NAME    = STARLINK-35779
OBJECT_ID      = 2025-294T
CENTER_NAME    = EARTH
REF_FRAME      = TEME
TIME_SYSTEM    = UTC
MEAN_ELEMENT_THEORY = SGP/SGP4

EPOCH          = 2026-01-04T14:21:23.912352
MEAN_MOTION    = 15.50950794
ECCENTRICITY   = .00023582
INCLINATION    = 42.9995
RA_OF_ASC_NODE = 44.6711
ARG_OF_PERICENTER = 346.5501
MEAN_ANOMALY   = 13.5296

EPHEMERIS_TYPE = 0
CLASSIFICATION_TYPE = U
NORAD_CAT_ID   = 67047
ELEMENT_SET_NO = 999
REV_AT_EPOCH   = 494
BSTAR          = .41127878E-2
MEAN_MOTION_DOT = .252193E-2
MEAN_MOTION_DDOT = 0

CCSDS_OMM_VERS = 2.0
CREATION_DATE  = 
ORIGINATOR     = 

OBJECT_NAME    = STARLINK-35905
OBJECT_ID      = 2025-294U
CENTER_NAME    = EARTH
REF_FRAME      = TEME
TIME_SYSTEM    = UTC
MEAN_ELEMENT_THEORY = SGP/SGP4

EPOCH          = 2026-01-04T14:00:01.999872
MEAN_MOTION    = 15.40637187
ECCENTRICITY   = .00008229
INCLINATION    = 43.0002
RA_OF_ASC_NODE = 44.9105
ARG_OF_PERICENTER = 293.3871
MEAN_ANOMALY   = 281.4365

EPHEMERIS_TYPE = 0
CLASSIFICATION_TYPE = U
NORAD_CAT_ID   = 67048
ELEMENT_SET_NO = 999
REV_AT_EPOCH   = 388
BSTAR          = .23113417E-2
MEAN_MOTION_DOT = .97283E-3
MEAN_MOTION_DDOT = 0

CCSDS_OMM_VERS = 2.0
CREATION_DATE  = 
ORIGINATOR     = 

OBJECT_NAME    = STARLINK-35877
OBJECT_ID      = 2025-294V
CENTER_NAME    = EARTH
REF_FRAME      = TEME
TIME_SYSTEM    = UTC
MEAN_ELEMENT_THEORY = SGP/SGP4

EPOCH          = 2026-01-04T14:00:01.999872
MEAN_MOTION    = 15.40643372
ECCENTRICITY   = .00013968
INCLINATION    = 43.0004
RA_OF_ASC_NODE = 45.0020
ARG_OF_PERICENTER = 258.0128
MEAN_ANOMALY   = 279.4804

EPHEMERIS_TYPE = 0
CLASSIFICATION_TYPE = U
NORAD_CAT_ID   = 67049
ELEMENT_SET_NO = 999
REV_AT_EPOCH   = 396
BSTAR          = .23165079E-2
MEAN_MOTION_DOT = .97524E-3
MEAN_MOTION_DDOT = 0

CCSDS_OMM_VERS = 2.0
CREATION_DATE  = 
ORIGINATOR     = 

OBJECT_NAME    = STARLINK-36078
OBJECT_ID      = 2025-294W
CENTER_NAME    = EARTH
REF_FRAME      = TEME
TIME_SYSTEM    = UTC
MEAN_ELEMENT_THEORY = SGP/SGP4

EPOCH          = 2026-01-04T11:13:53.358816
MEAN_MOTION    = 15.50593787
ECCENTRICITY   = .00017865
INCLINATION    = 43.0002
RA_OF_ASC_NODE = 45.4137
ARG_OF_PERICENTER = 273.5387
MEAN_ANOMALY   = 86.5269

EPHEMERIS_TYPE = 0
CLASSIFICATION_TYPE = U
NORAD_CAT_ID   = 67050
ELEMENT_SET_NO = 999
REV_AT_EPOCH   = 492
BSTAR          = .8310457E-3
MEAN_MOTION_DOT = .48742E-3
MEAN_MOTION_DDOT = 0

CCSDS_OMM_VERS = 2.0
CREATION_DATE  = 
ORIGINATOR     = 

OBJECT_NAME    = STARLINK-35706
OBJECT_ID      = 2025-294X
CENTER_NAME    = EARTH
REF_FRAME      = TEME
TIME_SYSTEM    = UTC
MEAN_ELEMENT_THEORY = SGP/SGP4

EPOCH          = 2026-01-04T09:40:38.138880
MEAN_MOTION    = 15.50613829
ECCENTRICITY   = .00030793
INCLINATION    = 43.0004
RA_OF_ASC_NODE = 45.7872
ARG_OF_PERICENTER = 291.1233
MEAN_ANOMALY   = 68.9298

EPHEMERIS_TYPE = 0
CLASSIFICATION_TYPE = U
NORAD_CAT_ID   = 67051
ELEMENT_SET_NO = 999
REV_AT_EPOCH   = 491
BSTAR          = .15461789E-2
MEAN_MOTION_DOT = .91556E-3
MEAN_MOTION_DDOT = 0

CCSDS_OMM_VERS = 2.0
CREATION_DATE  = 
ORIGINATOR     = 

OBJECT_NAME    = STARLINK-35720
OBJECT_ID      = 2025-294Y
CENTER_NAME    = EARTH
REF_FRAME      = TEME
TIME_SYSTEM    = UTC
MEAN_ELEMENT_THEORY = SGP/SGP4

EPOCH          = 2026-01-04T14:18:25.126560
MEAN_MOTION    = 15.50596070
ECCENTRICITY   = .00010069
INCLINATION    = 43.0000
RA_OF_ASC_NODE = 44.6549
ARG_OF_PERICENTER = 265.2838
MEAN_ANOMALY   = 94.7907

EPHEMERIS_TYPE = 0
CLASSIFICATION_TYPE = U
NORAD_CAT_ID   = 67052
ELEMENT_SET_NO = 999
REV_AT_EPOCH   = 494
BSTAR          = .14085479E-2
MEAN_MOTION_DOT = .83224E-3
MEAN_MOTION_DDOT = 0

CCSDS_OMM_VERS = 2.0
CREATION_DATE  = 
ORIGINATOR     = 

OBJECT_NAME    = STARLINK-35739
OBJECT_ID      = 2025-294Z
CENTER_NAME    = EARTH
REF_FRAME      = TEME
TIME_SYSTEM    = UTC
MEAN_ELEMENT_THEORY = SGP/SGP4

EPOCH          = 2026-01-04T14:17:54.761280
MEAN_MOTION    = 15.50656630
ECCENTRICITY   = .00025089
INCLINATION    = 43.0001
RA_OF_ASC_NODE = 44.6519
ARG_OF_PERICENTER = 246.4148
MEAN_ANOMALY   = 113.6449

EPHEMERIS_TYPE = 0
CLASSIFICATION_TYPE = U
NORAD_CAT_ID   = 67053
ELEMENT_SET_NO = 999
REV_AT_EPOCH   = 494
BSTAR          = .1236783E-2
MEAN_MOTION_DOT = .73101E-3
MEAN_MOTION_DDOT = 0

CCSDS_OMM_VERS = 2.0
CREATION_DATE  = 
ORIGINATOR     = 

OBJECT_NAME    = STARLINK-35754
OBJECT_ID      = 2025-294AA
CENTER_NAME    = EARTH
REF_FRAME      = TEME
TIME_SYSTEM    = UTC
MEAN_ELEMENT_THEORY = SGP/SGP4

EPOCH          = 2026-01-04T14:17:25.860480
MEAN_MOTION    = 15.50428046
ECCENTRICITY   = .00096149
INCLINATION    = 43.0001
RA_OF_ASC_NODE = 44.6495
ARG_OF_PERICENTER = 190.5938
MEAN_ANOMALY   = 169.4721

EPHEMERIS_TYPE = 0
CLASSIFICATION_TYPE = U
NORAD_CAT_ID   = 67054
ELEMENT_SET_NO = 999
REV_AT_EPOCH   = 494
BSTAR          = .22684121E-2
MEAN_MOTION_DOT = .134531E-2
MEAN_MOTION_DDOT = 0

CCSDS_OMM_VERS = 2.0
CREATION_DATE  = 
ORIGINATOR     = 

OBJECT_NAME    = STARLINK-35790
OBJECT_ID      = 2025-294AB
CENTER_NAME    = EARTH
REF_FRAME      = TEME
TIME_SYSTEM    = UTC
MEAN_ELEMENT_THEORY = SGP/SGP4

EPOCH          = 2026-01-03T12:00:02.804544
MEAN_MOTION    = 15.50646640
ECCENTRICITY   = .00026561
INCLINATION    = 43.0001
RA_OF_ASC_NODE = 51.0490
ARG_OF_PERICENTER = 273.9627
MEAN_ANOMALY   = 86.0930

EPHEMERIS_TYPE = 0
CLASSIFICATION_TYPE = U
NORAD_CAT_ID   = 67055
ELEMENT_SET_NO = 999
REV_AT_EPOCH   = 477
BSTAR          = .32162955E-2
MEAN_MOTION_DOT = .193555E-2
MEAN_MOTION_DDOT = 0

CCSDS_OMM_VERS = 2.0
CREATION_DATE  = 
ORIGINATOR     = 

OBJECT_NAME    = STARLINK-36143
OBJECT_ID      = 2025-294AC
CENTER_NAME    = EARTH
REF_FRAME      = TEME
TIME_SYSTEM    = UTC
MEAN_ELEMENT_THEORY = SGP/SGP4

EPOCH          = 2026-01-02T06:36:14.262912
MEAN_MOTION    = 15.50285346
ECCENTRICITY   = .0001273
INCLINATION    = 43.0002
RA_OF_ASC_NODE = 58.1981
ARG_OF_PERICENTER = 265.4668
MEAN_ANOMALY   = 94.6047

EPHEMERIS_TYPE = 0
CLASSIFICATION_TYPE = U
NORAD_CAT_ID   = 67056
ELEMENT_SET_NO = 999
REV_AT_EPOCH   = 458
BSTAR          = -.32411E-2
MEAN_MOTION_DOT = -.184142E-2
MEAN_MOTION_DDOT = 0

CCSDS_OMM_VERS = 2.0
CREATION_DATE  = 
ORIGINATOR     = 

OBJECT_NAME    = STARLINK-36141
OBJECT_ID      = 2025-294AD
CENTER_NAME    = EARTH
REF_FRAME      = TEME
TIME_SYSTEM    = UTC
MEAN_ELEMENT_THEORY = SGP/SGP4

EPOCH          = 2026-01-02T14:20:28.580064
MEAN_MOTION    = 15.50512095
ECCENTRICITY   = .0001393
INCLINATION    = 43.0006
RA_OF_ASC_NODE = 56.3183
ARG_OF_PERICENTER = 271.7628
MEAN_ANOMALY   = 88.3073

EPHEMERIS_TYPE = 0
CLASSIFICATION_TYPE = U
NORAD_CAT_ID   = 67057
ELEMENT_SET_NO = 999
REV_AT_EPOCH   = 463
BSTAR          = .7806271E-3
MEAN_MOTION_DOT = .45612E-3
MEAN_MOTION_DDOT = 0

